[{"OBJECT_NAME":"YAOGAN-39 01B","OBJECT_ID":"2023-130B","EPOCH":"2026-03-09T22:52:09.575040","MEAN_MOTION":15.17346461,"ECCENTRICITY":0.00021598,"INCLINATION":34.9951,"RA_OF_ASC_NODE":50.5935,"ARG_OF_PERICENTER":223.3635,"MEAN_ANOMALY":136.6908,"EPHEMERIS_TYPE":0,"CLASSIFICATION_TYPE":"U","NORAD_CAT_ID":57728,"ELEMENT_SET_NO":999,"REV_AT_EPOCH":14040,"BSTAR":0.00040482695,"MEAN_MOTION_DOT":8.241e-5,"MEAN_MOTION_DDOT":0},{"OBJECT_NAME":"STARLINK-30467","OBJECT_ID":"2023-146E","EPOCH":"2026-03-09T22:00:01.999584","MEAN_MOTION":15.12880838,"ECCENTRICITY":0.00023153,"INCLINATION":42.9991,"RA_OF_ASC_NODE":312.0737,"ARG_OF_PERICENTER":235.3451,"MEAN_ANOMALY":23.4393,"EPHEMERIS_TYPE":0,"CLASSIFICATION_TYPE":"U","NORAD_CAT_ID":57895,"ELEMENT_SET_NO":999,"REV_AT_EPOCH":547,"BSTAR":0.087923825,"MEAN_MOTION_DOT":0.01725536,"MEAN_MOTION_DDOT":0}]
